GSAT0101 (PRN E11)      
1 37846U 11060A   17072.01225298 -.00000020  00000-0  00000+0 0  9994
2 37846  55.7549  74.4028 0005308 317.4451  42.5345  1.70473792 33561
GSAT0102 (PRN E12)      
1 37847U 11060B   17071.64380551 -.00000019  00000-0  00000-0 0  9996
2 37847  55.7554  74.4124 0006554 303.9794 232.5081  1.70475949 33440
GSAT0103 (PRN E19)      
1 38857U 12055A   17069.12339493 -.00000032  00000-0  00000-0 0  9997
2 38857  54.9133 194.7735 0003032 220.7382 139.1835  1.70473626 27438
GSAT0104 (PRN E20)      
1 38858U 12055B   17069.05772771 -.00000032  00000-0  00000+0 0  9999
2 38858  54.9141 194.7743 0002042 211.5488 148.3834  1.70473655 27389
GSAT0201 (PRN E18)      
1 40128U 14050A   17071.57751271 -.00000078  00000-0  00000-0 0  9992
2 40128  50.2550  49.0840 1614252  60.1325 314.9176  1.85519470 15576
GSAT0202 (PRN E14)      
1 40129U 14050B   17071.30649561 -.00000078  00000-0  00000+0 0  9991
2 40129  50.3091  48.0882 1614970  61.1562 314.0794  1.85520034 17672
GSAT0203 (PRN E26)      
1 40544U 15017A   17071.20815806 -.00000018  00000-0  00000+0 0  9996
2 40544  55.5431  74.7299 0004493 264.2419  95.7327  1.70475434 12166
GSAT0204 (PRN E22)      
1 40545U 15017B   17070.99131809 -.00000018  00000-0  00000+0 0  9996
2 40545  55.5493  74.7466 0002110 256.3221 103.6814  1.70475575 12175
GSAT0205 (PRN E24)      
1 40889U 15045A   17067.71104148 -.00000043  00000-0  00000-0 0  9999
2 40889  57.0840 314.8635 0004321   9.4223 350.6389  1.70474361  9269
GSAT0206 (PRN E30)      
1 40890U 15045B   17072.03713692 -.00000046  00000-0  00000+0 0  9994
2 40890  57.0801 314.7428 0002707  12.8653 347.2025  1.70474566  9365
GSAT0209 (PRN E09)      
1 41174U 15079A   17072.20949189 -.00000022  00000-0  00000+0 0  9992
2 41174  54.9256 194.3749 0003810 285.1856  74.7289  1.70474022  7689
GSAT0208 (PRN E08)      
1 41175U 15079B   17071.25626359 -.00000027  00000-0  00000+0 0  9993
2 41175  54.9239 194.4023 0002827 281.6361  78.2829  1.70474067  7673
GSAT0211 (PRN E02)      
1 41549U 16030A   17072.54905198 -.00000046  00000-0  00000+0 0  9991
2 41549  57.2194 314.4651 0002857 325.8537  34.1885  1.70474324  4995
GSAT0210 (PRN E01)      
1 41550U 16030B   17071.08255787 -.00000044  00000-0  00000-0 0  9992
2 41550  57.2200 314.5067 0001577 294.4554  65.5894  1.70474308  4973
GSAT0207 (PRN E07)      
1 41859U 16069A   17070.74349001 -.00000030  00000-0  00000-0 0  9996
2 41859  54.5860 195.0793 0003569 268.2398  91.6664  1.70473982  1860
GSAT0212 (PRN E03)      
1 41860U 16069B   17071.18342821 -.00000028  00000-0  00000-0 0  9997
2 41860  54.5836 195.0681 0002394 288.7221  71.2010  1.70473942  1964
GSAT0213 (PRN E04)      
1 41861U 16069C   17071.55002100 -.00000026  00000-0  00000+0 0  9999
2 41861  54.5860 195.0597 0003061 234.2042 125.7186  1.70473947  1961
GSAT0214 (PRN E05)      
1 41862U 16069D   17069.93689773 -.00000032  00000-0  00000-0 0  9994
2 41862  54.5803 195.1014 0002321 232.8797 127.0437  1.70473993  1935
